STARLINK-31377          
1 58938U 24027H   26201.86148830  .00000549  00000+0  30676-4 0  9990
2 58938  53.1601  51.3259 0001329  87.2313 272.8840 15.30196465137715
STARLINK-31372          
1 58939U 24027J   26201.85515641  .00000623  00000+0  33153-4 0  9994
2 58939  53.1610  51.2887 0001452 107.5232 252.5928 15.30195338137715
STARLINK-31371          
1 58940U 24027K   26201.85409626  .00000868  00000+0  41409-4 0  9995
2 58940  53.1602  51.2822 0001352 106.7349 253.3800 15.30205086137716
STARLINK-31345          
1 58941U 24027L   26201.81822278  .00000378  00000+0  24882-4 0  9996
2 58941  53.1597  51.0584 0001263  90.1991 269.9155 15.30196937137713
STARLINK-31354          
1 58942U 24027M   26201.89927503  .00000620  00000+0  31752-4 0  9996
2 58942  53.1599  50.1432 0001427 118.8416 241.2729 15.31701819137734
STARLINK-31346          
1 58943U 24027N   26201.87878583  .00002101  00000+0  83038-4 0  9998
2 58943  53.1592  48.6119 0001405  89.0584 271.0578 15.30201272137755
STARLINK-31336          
1 58944U 24027P   26201.86043301  .00000874  00000+0  41643-4 0  9991
2 58944  53.1612  51.3213 0000996  87.0651 273.0464 15.30196071137703
STARLINK-31359          
1 58945U 24027Q   26201.78462963 -.00000163  00000+0  63019-5 0  9996
2 58945  53.1619  12.3635 0001303  86.1702 273.9449 15.34387182138269
STARLINK-31331          
1 58946U 24027R   26201.82002514  .00000126  00000+0  15819-4 0  9996
2 58946  53.1601  50.3608 0001338  84.2384 275.8770 15.31703753137727
STARLINK-31116          
1 58947U 24027S   26201.95518798  .00000511  00000+0  28205-4 0  9998
2 58947  53.1604  49.7798 0001251  97.7527 262.3617 15.31715172137746
STARLINK-31311          
1 58948U 24027T   26201.95781582  .00000799  00000+0  39105-4 0  9991
2 58948  53.1607  48.3836 0001264  90.6116 269.5030 15.30197912137763
STARLINK-31294          
1 58949U 24027U   26201.86570802  .00000566  00000+0  31232-4 0  9998
2 58949  53.1609  51.3509 0001245  87.0820 273.0323 15.30198704137718
STARLINK-31330          
1 58951U 24027W   26201.87363009  .00002269  00000+0  78320-4 0  9992
2 58951  53.1608  45.7503 0001395  95.8169 264.2993 15.34384429137798
STARLINK-31293          
1 58952U 24027X   26201.89460515 -.00001450  00000+0 -34935-4 0  9992
2 58952  53.1605  50.1136 0001213  96.0638 264.0501 15.31715304137735
STARLINK-31373          
1 58965U 24031A   26201.81941437  .00005236  00000+0  16591-3 0  9991
2 58965  53.1615  37.7750 0000901  98.5168 261.5937 15.34416573136925
STARLINK-31449          
1 58966U 24031B   26201.91668981  .00033617  00000+0  10023-2 0  9990
2 58966  53.1603  37.3917 0001177  89.5125  53.2098 15.34378895  5667
STARLINK-31314          
1 58967U 24031C   26201.78076416 -.00000827  00000+0 -15786-4 0  9994
2 58967  53.1618  38.2445 0001253 112.1268 247.9866 15.30199194136913
STARLINK-31356          
1 58968U 24031D   26201.80501638  .00001810  00000+0  64702-4 0  9990
2 58968  53.1612   9.8070 0001121  85.3172 274.7958 15.34395840137310
STARLINK-31335          
1 58969U 24031E   26201.91668981  .00033479  00000+0  99843-3 0  9997
2 58969  53.1591  33.2419 0001254  88.8052   2.0879 15.34373257  5830
STARLINK-31368          
1 58970U 24031F   26201.84502525  .00000776  00000+0  38318-4 0  9997
2 58970  53.1605  37.9411 0000992  92.0335 268.0779 15.30198251136923
STARLINK-31333          
1 58971U 24031G   26201.91668981  .00846060  00000+0  23624-1 0  9990
2 58971  53.1598  25.2392 0001587 357.7722 184.2022 15.33661651  5865
STARLINK-31351          
1 58972U 24031H   26201.84047575  .00002075  00000+0  72533-4 0  9999
2 58972  53.1614  37.9038 0001385  67.1600 292.9549 15.34395285136915
STARLINK-31365          
1 58973U 24031J   26201.82154053  .00003524  00000+0  11539-3 0  9996
2 58973  53.1607  37.7874 0001294  70.5076 289.6066 15.34399737136922
STARLINK-31361          
1 58974U 24031K   26201.82784517  .00001730  00000+0  62306-4 0  9997
2 58974  53.1617  37.8233 0000640  62.1357 297.9711 15.34398556136924
STARLINK-31369          
1 58975U 24031L   26201.94338796  .00000370  00000+0  22090-4 0  9990
2 58975  53.1615  37.1274 0001323  81.1086 279.0067 15.34397007136925
STARLINK-31324          
1 58976U 24031M   26201.91668981  .00026345  00000+0  78881-3 0  9998
2 58976  53.1603  37.7089 0001137  82.1646 257.7838 15.34371891  5869
STARLINK-31358          
1 58977U 24031N   26201.84291109 -.00001682  00000+0 -44692-4 0  9998
2 58977  53.1607  37.9059 0001053  81.8616 278.2504 15.30188237136907
STARLINK-31355          
1 58978U 24031P   26201.84258402  .00003365  00000+0  11076-3 0  9995
2 58978  53.1632  37.9145 0001491  97.1227 262.9945 15.34380888136905
STARLINK-31380          
1 58979U 24031Q   26201.82363782  .00005102  00000+0  16207-3 0  9994
2 58979  53.1597  37.8008 0001476  93.7019 266.4153 15.34394214136905
STARLINK-31353          
1 58980U 24031R   26201.77113090  .00000422  00000+0  23634-4 0  9998
2 58980  53.1627  38.1839 0001328  94.3006 265.8149 15.34390572136895
