OBJECT_NAME,OBJECT_ID,EPOCH,MEAN_MOTION,ECCENTRICITY,INCLINATION,RA_OF_ASC_NODE,ARG_OF_PERICENTER,MEAN_ANOMALY,EPHEMERIS_TYPE,CLASSIFICATION_TYPE,NORAD_CAT_ID,ELEMENT_SET_NO,REV_AT_EPOCH,BSTAR,MEAN_MOTION_DOT,MEAN_MOTION_DDOT
STARLINK-31377,2024-027H,2026-07-20T20:40:32.589120,15.30196465,.00013295,53.1601,51.3259,87.2313,272.8840,0,U,58938,999,13771,.30676439E-4,.549E-5,0
STARLINK-31372,2024-027J,2026-07-20T20:31:25.513824,15.30195338,.00014526,53.1610,51.2887,107.5232,252.5928,0,U,58939,999,13771,.33152787E-4,.623E-5,0
STARLINK-31371,2024-027K,2026-07-20T20:29:53.916864,15.30205086,.00013528,53.1602,51.2822,106.7349,253.3800,0,U,58940,999,13771,.41408813E-4,.868E-5,0
STARLINK-31345,2024-027L,2026-07-20T19:38:14.448192,15.30196937,.0001263,53.1597,51.0584,90.1991,269.9155,0,U,58941,999,13771,.2488224E-4,.378E-5,0
STARLINK-31354,2024-027M,2026-07-20T21:34:57.362592,15.31701819,.00014271,53.1599,50.1432,118.8416,241.2729,0,U,58942,999,13773,.31752327E-4,.62E-5,0
STARLINK-31346,2024-027N,2026-07-20T21:05:27.095712,15.30201272,.00014055,53.1592,48.6119,89.0584,271.0578,0,U,58943,999,13775,.83038332E-4,.2101E-4,0
STARLINK-31336,2024-027P,2026-07-20T20:39:01.412064,15.30196071,.00009962,53.1612,51.3213,87.0651,273.0464,0,U,58944,999,13770,.4164317E-4,.874E-5,0
STARLINK-31359,2024-027Q,2026-07-20T18:49:52.000032,15.34387182,.00013031,53.1619,12.3635,86.1702,273.9449,0,U,58945,999,13826,.6301871E-5,-.163E-5,0
STARLINK-31331,2024-027R,2026-07-20T19:40:50.172096,15.31703753,.00013381,53.1601,50.3608,84.2384,275.8770,0,U,58946,999,13772,.15818874E-4,.126E-5,0
STARLINK-31116,2024-027S,2026-07-20T22:55:28.241472,15.31715172,.00012513,53.1604,49.7798,97.7527,262.3617,0,U,58947,999,13774,.28204974E-4,.511E-5,0
STARLINK-31311,2024-027T,2026-07-20T22:59:15.286848,15.30197912,.00012648,53.1607,48.3836,90.6116,269.5030,0,U,58948,999,13776,.39104809E-4,.799E-5,0
STARLINK-31294,2024-027U,2026-07-20T20:46:37.172928,15.30198704,.00012451,53.1609,51.3509,87.0820,273.0323,0,U,58949,999,13771,.31232289E-4,.566E-5,0
STARLINK-31330,2024-027W,2026-07-20T20:58:01.639776,15.34384429,.00013952,53.1608,45.7503,95.8169,264.2993,0,U,58951,999,13779,.78319555E-4,.2269E-4,0
STARLINK-31293,2024-027X,2026-07-20T21:28:13.884960,15.31715304,.00012136,53.1605,50.1136,96.0638,264.0501,0,U,58952,999,13773,-.34935096E-4,-.145E-4,0
STARLINK-31373,2024-031A,2026-07-20T19:39:57.401568,15.34416573,.00009017,53.1615,37.7750,98.5168,261.5937,0,U,58965,999,13692,.16591156E-3,.5236E-4,0
STARLINK-31449,2024-031B,2026-07-20T22:00:01.999584,15.34378895,.00011774,53.1603,37.3917,89.5125,53.2098,0,U,58966,999,566,.10022984E-2,.33617E-3,0
STARLINK-31314,2024-031C,2026-07-20T18:44:18.023424,15.30199194,.00012531,53.1618,38.2445,112.1268,247.9866,0,U,58967,999,13691,-.15786151E-4,-.827E-5,0
STARLINK-31356,2024-031D,2026-07-20T19:19:13.415232,15.34395840,.0001121,53.1612,9.8070,85.3172,274.7958,0,U,58968,999,13731,.64701828E-4,.181E-4,0
STARLINK-31335,2024-031E,2026-07-20T22:00:01.999584,15.34373257,.00012545,53.1591,33.2419,88.8052,2.0879,0,U,58969,999,583,.99843191E-3,.33479E-3,0
STARLINK-31368,2024-031F,2026-07-20T20:16:50.181600,15.30198251,.0000992,53.1605,37.9411,92.0335,268.0779,0,U,58970,999,13692,.38317759E-4,.776E-5,0
STARLINK-31333,2024-031G,2026-07-20T22:00:01.999584,15.33661651,.00015876,53.1598,25.2392,357.7722,184.2022,0,U,58971,999,586,.23623836E-1,.84606E-2,0
STARLINK-31351,2024-031H,2026-07-20T20:10:17.104800,15.34395285,.00013854,53.1614,37.9038,67.1600,292.9549,0,U,58972,999,13691,.72533292E-4,.2075E-4,0
STARLINK-31365,2024-031J,2026-07-20T19:43:01.101792,15.34399737,.00012943,53.1607,37.7874,70.5076,289.6066,0,U,58973,999,13692,.11539099E-3,.3524E-4,0
STARLINK-31361,2024-031K,2026-07-20T19:52:05.822688,15.34398556,.00006408,53.1617,37.8233,62.1357,297.9711,0,U,58974,999,13692,.62305897E-4,.173E-4,0
STARLINK-31369,2024-031L,2026-07-20T22:38:28.719744,15.34397007,.0001323,53.1615,37.1274,81.1086,279.0067,0,U,58975,999,13692,.22090278E-4,.37E-5,0
STARLINK-31324,2024-031M,2026-07-20T22:00:01.999584,15.34371891,.0001137,53.1603,37.7089,82.1646,257.7838,0,U,58976,999,586,.78881495E-3,.26345E-3,0
STARLINK-31358,2024-031N,2026-07-20T20:13:47.518176,15.30188237,.00010537,53.1607,37.9059,81.8616,278.2504,0,U,58977,999,13690,-.4469195E-4,-.1682E-4,0
STARLINK-31355,2024-031P,2026-07-20T20:13:19.259328,15.34380888,.0001491,53.1632,37.9145,97.1227,262.9945,0,U,58978,999,13690,.1107581E-3,.3365E-4,0
STARLINK-31380,2024-031Q,2026-07-20T19:46:02.307648,15.34394214,.00014765,53.1597,37.8008,93.7019,266.4153,0,U,58979,999,13690,.16206937E-3,.5102E-4,0
STARLINK-31353,2024-031R,2026-07-20T18:30:25.709760,15.34390572,.00013281,53.1627,38.1839,94.3006,265.8149,0,U,58980,999,13689,.23634321E-4,.422E-5,0
